[{"OBJECT_NAME":"IRIDIUM 139","OBJECT_ID":"2017-061J","EPOCH":"2026-03-09T23:30:10.706112","MEAN_MOTION":14.34217511,"ECCENTRICITY":0.00020273,"INCLINATION":86.3918,"RA_OF_ASC_NODE":66.7885,"ARG_OF_PERICENTER":90.2934,"MEAN_ANOMALY":269.8494,"EPHEMERIS_TYPE":0,"CLASSIFICATION_TYPE":"U","NORAD_CAT_ID":42963,"ELEMENT_SET_NO":999,"REV_AT_EPOCH":44062,"BSTAR":-3.48826e-7,"MEAN_MOTION_DOT":1.9e-7,"MEAN_MOTION_DDOT":0},{"OBJECT_NAME":"COSMOS 923","OBJECT_ID":"1977-059A","EPOCH":"2026-03-09T16:52:02.955072","MEAN_MOTION":14.32871357,"ECCENTRICITY":0.00122322,"INCLINATION":74.0488,"RA_OF_ASC_NODE":204.8264,"ARG_OF_PERICENTER":153.7299,"MEAN_ANOMALY":206.4476,"EPHEMERIS_TYPE":0,"CLASSIFICATION_TYPE":"U","NORAD_CAT_ID":10120,"ELEMENT_SET_NO":999,"REV_AT_EPOCH":54161,"BSTAR":9.6280583e-5,"MEAN_MOTION_DOT":2.37e-6,"MEAN_MOTION_DDOT":0}]
